{
  "orbit_id": "5",
  "orbit_determination_date": "2015-07-27 06:17:35",
  "orbit_uncertainty": "5",
  "minimum_orbit_intersection": ".00201465",
  "jupiter_tisserand_invariant": "7.350",
  "epoch_osculation": "2457000.5",
  "eccentricity": ".3683826990903955",
  "semi_major_axis": ".7850454277210355",
  "inclination": "1.327850654502157",
  "ascending_node_longitude": "126.3408424592911",
  "orbital_period": "254.0625247837503",
  "perihelion_distance": ".4958482741485864",
  "perihelion_argument": "328.9968684625534",
  "aphelion_distance": "1.074242581293485",
  "perihelion_time": "2457066.003680954663",
  "mean_anomaly": "267.1829851185241",
  "mean_motion": "1.416974031516141",
  "equinox": "J2000"
}
